JILIN GAOFEN OBJECT A
1 68691U 26080A   26104.41132994  .00000721  00000+0  49998-4 0  9994
2 68691  97.6674 180.0709 0012776 291.1151  68.8711 15.08745465    49
