{
  "norad_id": 68691,
  "name": "JILIN GAOFEN OBJECT A",
  "history": [
    {
      "epoch": "2026-04-14T09:52:18.906816Z",
      "apogee_km": 548.8710129015062,
      "perigee_km": 531.1937065535294,
      "latitude_deg": -1.4470419859108733e-05,
      "longitude_deg": -170.59601478943324,
      "height_km": 539.9229050505334,
      "semi_major_axis_km": 6918.169359727517,
      "eccentricity": 0.0012776,
      "inclination_deg": 97.6674,
      "raan_deg": 180.0709,
      "arg_perigee_deg": 291.1151,
      "mean_anomaly_deg": 68.8711,
      "mean_motion_rev_day": 15.08745465
    }
  ]
}